              M50 Cartesian                         M50 Keplerian  
    -----------------------------------       --------------------------------
     X    =       -1511600.28                 A    =         6776415.37  meter
     Y    =       -3917438.24  meter          E    =           .0008688
     Z    =        5311380.12                 I    =           51.72803
     XDOT =       7260.375044                 Wp   =           74.97869
     YDOT =      -2480.206532  meter/sec      RA   =          162.54687  deg
     ZDOT =        238.863307                 TA   =           12.76068
                                              MA   =           12.73870
                                              Ha   =            222.847  n.mi
                                              Hp   =            211.921
 
              M50 Cartesian                         J2K Cartesian  
    -----------------------------------       --------------------------------
     X    =       -4959318.49                 X    =        -1493483.21
     Y    =      -12852487.68  feet           Y    =        -3934240.12  meter
     Z    =       17425787.78                 Z    =         5304081.36
     XDOT =      23820.128096                 XDOT =        7286.409384
     YDOT =      -8137.160538  feet/sec       YDOT =       -2398.870638  meter/sec
     ZDOT =        783.672267                 ZDOT =         274.196732
 
              TDR Cartesian                         TDR Cartesian  
    -----------------------------------       --------------------------------
     X    =       10927567.25                 X    =         3330722.50
     Y    =        8452512.63  feet           Y    =         2576325.85  meter
     Z    =       17394903.38                 Z    =         5301966.55
     XDOT =     -15691.235900                 XDOT =       -4782.688702
     YDOT =      18371.114136  feet/sec       YDOT =        5599.515589  meter/sec
     ZDOT =        936.608915                 ZDOT =         285.478397
  
  
    The mean element set is posted at the UTC for which position is
    just north of the next ascending node relative to the above
    vector time
 
 
    TWO LINE MEAN ELEMENT SET
  
    ISS
    1 25544U 98067A   15296.54873708  .00016717  00000-0  10270-3 0  9114
    2 25544  51.6440 163.4216 0006587  64.1628 296.0203 15.54454964  8016
  
  
    Satellite: ISS
    Catalog Number: 25544
    Epoch time:      15296.54873708   =   yrday.fracday
    Element set:     911
    Inclination:       51.6440  deg
    RA of node:       163.4216  deg
    Eccentricity:     .0006587     
    Arg of perigee:    64.1628  deg
    Mean anomaly:     296.0203  deg
    Mean motion:   15.54454964  rev/day
    Decay rate:    1.67170E-04  rev/day^2
    Epoch rev:             801
    Checksum:              314
 
 
    Coasting Arc #13 (Orbit 815)
    ---------------------------------------
 
    Vector Time (GMT): 2015/297/12:00:00.000
    Vector Time (MET): N/A
    Weight (LBS)     : 907028.0
 
              M50 Cartesian                         M50 Keplerian  
    -----------------------------------       --------------------------------
     X    =        -343855.57                 A    =         6777359.41  meter
     Y    =        4481363.70  meter          E    =           .0018924
     Z    =       -5089137.84                 I    =           51.76060
     XDOT =      -7292.093117                 Wp   =           91.80177
     YDOT =       1478.432469  meter/sec      RA   =          157.55007  deg
     ZDOT =       1799.773911                 TA   =          195.58692
                                              MA   =          195.64526
                                              Ha   =            222.755  n.mi
                                              Hp   =            211.852
 
              M50 Cartesian                         J2K Cartesian  
    -----------------------------------       --------------------------------
     X    =       -1128135.08                 X    =         -369220.19
     Y    =       14702636.80  feet           Y    =         4477376.09  meter
     Z    =      -16696646.45                 Z    =        -5090870.35
     XDOT =     -23924.190015                 XDOT =       -7316.826109
     YDOT =       4850.500225  feet/sec       YDOT =        1396.749380  meter/sec
     ZDOT =       5904.770049                 ZDOT =        1764.289536
 
              TDR Cartesian                         TDR Cartesian  
    -----------------------------------       --------------------------------
     X    =       -6863022.43                 X    =        -2091849.24
     Y    =      -13040909.46  feet           Y    =        -3974869.20  meter
     Z    =      -16704844.33                 Z    =        -5091636.55
     XDOT =      16877.611195                 XDOT =        5144.295892
     YDOT =     -16227.507474  feet/sec       YDOT =       -4946.144278  meter/sec
     ZDOT =       5751.327353                 ZDOT =        1753.004577
  
  
    The mean element set is posted at the UTC for which position is
    just north of the next ascending node relative to the above
    vector time
 
 
    TWO LINE MEAN ELEMENT SET
  
    ISS
    1 25544U 98067A   15297.51306444  .00016717  00000-0  10270-3 0  9121
    2 25544  51.6430 158.6110 0006515  66.7674 293.4164 15.54476835  8168
  
  
    Satellite: ISS
    Catalog Number: 25544
    Epoch time:      15297.51306444   =   yrday.fracday
    Element set:     912
    Inclination:       51.6430  deg
    RA of node:       158.6110  deg
    Eccentricity:     .0006515     
    Arg of perigee:    66.7674  deg
    Mean anomaly:     293.4164  deg
    Mean motion:   15.54476835  rev/day
    Decay rate:    1.67170E-04  rev/day^2
    Epoch rev:             816
    Checksum:              313
 
 
    Coasting Arc #14 (Orbit 831)
    ---------------------------------------
 
    Vector Time (GMT): 2015/298/12:00:00.000
    Vector Time (MET): N/A
    Weight (LBS)     : 907028.0
 
              M50 Cartesian                         M50 Keplerian  
    -----------------------------------       --------------------------------
     X    =        2117203.08                 A    =         6780529.95  meter
     Y    =       -4849364.12  meter          E    =           .0016440
     Z    =        4229656.22                 I    =           51.80082
     XDOT =       6742.733325                 Wp   =           72.33527
     YDOT =       -259.280586  meter/sec      RA   =          152.56252  deg
     ZDOT =      -3655.873754                 TA   =           55.05510
                                              MA   =           54.90079
                                              Ha   =            222.635  n.mi
                                              Hp   =            211.794
 
              M50 Cartesian                         J2K Cartesian  
    -----------------------------------       --------------------------------
     X    =        6946204.34                 X    =         2150725.99
     Y    =      -15909987.26  feet           Y    =        -4825500.25  meter
     Z    =       13876824.85                 Z    =         4240023.35
     XDOT =      22121.828494                 XDOT =        6762.890754
     YDOT =       -850.658090  feet/sec       YDOT =        -183.766590  meter/sec
     ZDOT =     -11994.336463                 ZDOT =       -3623.069211
 
              TDR Cartesian                         TDR Cartesian  
    -----------------------------------       --------------------------------
     X    =        2828891.73                 X    =          862246.20
     Y    =       17091187.72  feet           Y    =         5209394.02  meter
     Z    =       13922370.16                 Z    =         4243538.43
     XDOT =     -16969.770924                 XDOT =       -5172.386178
     YDOT =      12507.965557  feet/sec       YDOT =        3812.427902  meter/sec
     ZDOT =     -11852.647702                 ZDOT =       -3612.687019
  
  
    The mean element set is posted at the UTC for which position is
    just north of the next ascending node relative to the above
    vector time
 
 
    TWO LINE MEAN ELEMENT SET
  
    ISS
    1 25544U 98067A   15298.54166869  .00016717  00000-0  10270-3 0  9131
    2 25544  51.6430 153.4805 0006440  69.2884 290.8959 15.54523424  8328
  
  
    Satellite: ISS
    Catalog Number: 25544
    Epoch time:      15298.54166869   =   yrday.fracday
    Element set:     913
    Inclination:       51.6430  deg
    RA of node:       153.4805  deg
    Eccentricity:     .0006440     
    Arg of perigee:    69.2884  deg
    Mean anomaly:     290.8959  deg
    Mean motion:   15.54523424  rev/day
    Decay rate:    1.67170E-04  rev/day^2
    Epoch rev:             832
    Checksum:              333
 
 
    Coasting Arc #15 (Orbit 846)
    ---------------------------------------
 
    Vector Time (GMT): 2015/299/12:00:00.000
    Vector Time (MET): N/A
    Weight (LBS)     : 907028.0
 
              M50 Cartesian                         M50 Keplerian  
    -----------------------------------       --------------------------------
     X    =       -3578031.00                 A    =         6784609.96  meter
     Y    =        4979192.20  meter          E    =           .0010962
     Z    =       -2908670.73                 I    =           51.84036
     XDOT =      -5649.582093                 Wp   =           70.84030
     YDOT =      -1117.974607  meter/sec      RA   =          147.58707  deg
     ZDOT =       5054.930605                 TA   =          256.12856
                                              MA   =          256.25054
                                              Ha   =            222.704  n.mi
                                              Hp   =            211.777
 
